[{"OBJECT_NAME":"NUSHSAT1","OBJECT_ID":"2025-052B","EPOCH":"2026-03-09T15:31:41.225952","MEAN_MOTION":15.31903202,"ECCENTRICITY":0.0005501,"INCLINATION":97.4095,"RA_OF_ASC_NODE":325.7239,"ARG_OF_PERICENTER":84.7512,"MEAN_ANOMALY":275.4357,"EPHEMERIS_TYPE":0,"CLASSIFICATION_TYPE":"U","NORAD_CAT_ID":63211,"ELEMENT_SET_NO":999,"REV_AT_EPOCH":5488,"BSTAR":0.00074857,"MEAN_MOTION_DOT":0.00023034,"MEAN_MOTION_DDOT":0},{"OBJECT_NAME":"STARLINK-33761","OBJECT_ID":"2025-069Y","EPOCH":"2026-03-09T11:19:25.899456","MEAN_MOTION":15.30211163,"ECCENTRICITY":0.0001032,"INCLINATION":53.1595,"RA_OF_ASC_NODE":143.3119,"ARG_OF_PERICENTER":71.7687,"MEAN_ANOMALY":288.3426,"EPHEMERIS_TYPE":0,"CLASSIFICATION_TYPE":"U","NORAD_CAT_ID":63455,"ELEMENT_SET_NO":999,"REV_AT_EPOCH":5337,"BSTAR":0.001022092,"MEAN_MOTION_DOT":0.00030045,"MEAN_MOTION_DDOT":0}]
