NUSHSAT1                
1 63211U 25052B   26068.64700493  .00023034  00000+0  74857-3 0  9997
2 63211  97.4095 325.7239 0005501  84.7512 275.4357 15.31903202 54882
STARLINK-33761          
1 63455U 25069Y   26068.47182754  .00030045  00000+0  10221-2 0  9994
2 63455  53.1595 143.3119 0001032  71.7687 288.3426 15.30211163 53371
